COSMOS 2489             
1 39484U 13076B   24156.90538559  .00000028  00000+0  13341-3 0  9991
2 39484  82.4871 272.4114 0020233 272.4129  87.4634 12.42879117473736
COSMOS 2490             
1 39485U 13076C   24156.87747822  .00000020  00000+0  72583-4 0  9999
2 39485  82.4818 270.8216 0019950 288.1933  71.6975 12.42892405473664
AIST-1 (RS-41)          
1 39492U 13078C   24157.16097072  .00002842  00000+0  28079-3 0  9991
2 39492  82.4178 267.5155 0017395 236.6729 123.2825 14.91511716566770
KAZEOSAT 1              
1 39731U 14024A   24157.20985746  .00000417  00000+0  14040-3 0  9997
2 39731  98.3949 233.8550 0001156  84.7423 275.3899 14.41978486531671
COSMOS 2496             
1 39761U 14028A   24156.91645892  .00000046  00000+0  25971-3 0  9999
2 39761  82.4460 213.6461 0018376 255.0421 104.8624 12.42894406455301
COSMOS 2497             
1 39762U 14028B   24156.89038329  .00000061  00000+0  36986-3 0  9993
2 39762  82.4508 215.0571 0019102 248.4283 111.4761 12.42881584455302
COSMOS 2498             
1 39763U 14028C   24156.91874167  .00000042  00000+0  23360-3 0  9996
2 39763  82.4470 213.8386 0019709 248.6429 111.2547 12.42940387455338
COSMOS 2499 (RS-47)     
1 39765U 14028E   24157.13872938  .00000003  00000+0 -21520-4 0  9992
2 39765  82.4515  33.1405 0230772 303.9830  53.9534 12.82873848470089
SPROUT                  
1 39770U 14029E   24157.15960001  .00150215  00000+0  32086-2 0  9997
2 39770  98.0075 308.5090 0008919 230.7049 129.3407 15.44240995545793
HODOYOSHI-4             
1 40011U 14033B   24157.16744173  .00001987  00000+0  24235-3 0  9992
2 40011  97.5832   7.4602 0023930 237.6106 122.2794 14.84216839538585
UNISAT-6                
1 40012U 14033C   24157.17250909  .00003627  00000+0  47726-3 0  9996
2 40012  97.7018 320.0897 0052203 345.8686  14.1062 14.79822271536069
DEIMOS-2                
1 40013U 14033D   24157.15748225  .00003434  00000+0  37291-3 0  9990
2 40013  97.6832  44.1923 0000877  79.5864 280.5452 14.88758674539976
BUGSAT-1 (TITA)         
1 40014U 14033E   24156.89662730  .00007195  00000+0  52040-3 0  9994
2 40014  98.1264 197.8769 0036205 172.2514 187.9277 15.03833897543792
SAUDISAT 4              
1 40016U 14033G   24156.73053410  .00001160  00000+0  16822-3 0  9992
2 40016  97.6654 323.1521 0046065 330.7673  29.0961 14.77145882536364
APRIZESAT 9             
1 40018U 14033J   24157.15644991  .00001216  00000+0  19451-3 0  9994
2 40018  97.8018 303.2892 0070196  66.2276 294.6273 14.71922312534431
BRITE-CA1 (TORONTO)     
1 40020U 14033L   24157.10433221  .00002602  00000+0  42457-3 0  9996
2 40020  97.8757 294.6540 0084303 130.2378 230.6242 14.69402485533208
DUCHIFAT-1              
1 40021U 14033M   24156.94424625  .00015494  00000+0  10374-2 0  9991
2 40021  98.0898 140.1521 0014823 135.0406 225.2023 15.06922323542282
NANOSATC-BR1            
1 40024U 14033Q   24157.15989823  .00011859  00000+0  88275-3 0  9991
2 40024  98.0610 128.7674 0005712 191.9182 168.1908 15.03097188541967
QB50P1                  
1 40025U 14033R   24156.40622919  .00008747  00000+0  71538-3 0  9995
2 40025  98.0384 116.7519 0010258 199.2895 160.7940 14.99562682540967
DTUSAT-2                
1 40030U 14033W   24156.66207022  .00008401  00000+0  71132-3 0  9990
2 40030  98.0057 108.7741 0009772 188.3176 171.7885 14.98233940540824
FLOCK 1C-4              
1 40031U 14033X   24157.20708988  .00014600  00000+0  97108-3 0  9998
2 40031  98.0742 133.1495 0007575 141.1419 219.0353 15.07249498541913
QB50P2                  
1 40032U 14033Y   24156.63123254  .00008349  00000+0  70595-3 0  9996
2 40032  98.0080 108.7531 0008944 182.4308 177.6871 14.98296494540790
PERSEUS-M1              
1 40039U 14033AF  24156.62958864  .00003066  00000+0  32190-3 0  9995
2 40039  97.9077  83.4677 0011600 231.7684 128.2490 14.90192907539815
POLYITAN-1              
1 40042U 14033AJ  24156.63218700  .00012706  00000+0  96479-3 0  9999
2 40042  98.0708 120.4027 0014137 165.0829 195.0815 15.02258762540957
TIGRISAT                
1 40043U 14033AK  24156.41917496  .00003102  00000+0  41748-3 0  9993
2 40043  97.6937 319.7027 0054906 346.5762  13.3986 14.78871245535572
AISAT                   
1 40054U 14034B   24157.15016947  .00010630  00000+0  11383-2 0  9994
2 40054  98.3389  11.8934 0010697 153.1850 206.9920 14.88849820536023
CANX-4                  
1 40055U 14034C   24157.14175954  .00002042  00000+0  29029-3 0  9993
2 40055  98.3937 351.3961 0012545 225.9688 134.0488 14.78037062534806
CANX-5                  
1 40056U 14034D   24156.47002797  .00002049  00000+0  29119-3 0  9990
2 40056  98.3940 350.6993 0012503 228.5989 131.4147 14.78043833525485
VELOX-I                 
1 40057U 14034E   24157.12400135  .00005855  00000+0  67752-3 0  9995
2 40057  98.3432  11.7084 0009249 173.0843 187.0500 14.85909520535915
GONETS-M 10             
1 40063U 14036C   24156.91368358  .00000024  00000+0  10600-3 0  9993
2 40063  82.5126  48.6860 0021458 324.5979  35.3675 12.42913309450035
METEOR-M 2              
1 40069U 14037A   24157.20095616  .00000235  00000+0  12753-3 0  9992
2 40069  98.4359 151.9751 0006565  42.9528 317.2162 14.20973072513927
DX1                     
1 40071U 14037C   24157.22716727  .00002746  00000+0  33011-3 0  9999
2 40071  98.3354  69.1689 0008482 152.0804 208.0866 14.84823473535868
UKUBE-1                 
1 40074U 14037F   24157.07801921  .00010254  00000+0  97493-3 0  9993
2 40074  98.3433  86.2584 0006014 105.7439 254.4442 14.93659344536973
GAOFEN-2                
1 40118U 14049A   24157.18142920  .00001822  00000+0  24332-3 0  9997
2 40118  97.6616 208.3025 0006516 114.9828 245.2062 14.80684884529459
BRITE-PL2 (HEWELIUSZ)   
1 40119U 14049B   24156.71700791  .00003260  00000+0  35315-3 0  9993
2 40119  97.8826 256.4401 0016749  49.4664 310.8009 14.88820734530722
HODOYOSHI-1             
1 40299U 14070B   24157.15737869  .00031887  00000+0  61764-3 0  9994
2 40299  97.1402 217.4187 0008746  86.3378 273.8873 15.47612740533263
CBERS 4                 
1 40336U 14079A   24157.19948434  .00000266  00000+0  10750-3 0  9997
2 40336  98.4005 225.8438 0001501  71.8666 288.2683 14.35476686497521
SMAP                    
1 40376U 15003A   24157.19877496  .00000969  00000+0  19659-3 0  9995
2 40376  98.1274 163.7624 0001331  96.3663 263.7690 14.63393400499102
CP10 (EXOCUBE)          
1 40380U 15003E   24156.98936969  .00326393  40944-4  12122-2 0  9992
2 40380  99.0881 180.1607 0033601 153.5973 206.7014 15.87086275517519
GONETS-M 11             
1 40552U 15020A   24157.22288560  .00000032  00000+0  16218-3 0  9991
2 40552  82.4836 133.2826 0016006 176.1387 183.9819 12.42868946416606
GONETS-M 12             
1 40553U 15020B   24156.95565105  .00000040  00000+0  21749-3 0  9998
2 40553  82.4871 134.3636 0015043 161.0859 199.0783 12.42880939416529
GONETS-M 13             
1 40554U 15020C   24156.92784545  .00000008  00000+0 -11485-4 0  9999
2 40554  82.4831 133.2331 0013935 145.7816 214.4164 12.42870811416495
DMC3-FM1                
1 40715U 15032A   24157.22734446  .00001148  00000+0  14524-3 0  9991
2 40715  97.7519  36.4920 0005270 348.1698  11.9392 14.83663405479807
DMC3-FM2                
1 40716U 15032B   24157.18282071  .00001175  00000+0  14847-3 0  9997
2 40716  97.7571  37.5100 0007263 348.7813  11.3238 14.83669362479796
DMC3-FM3                
1 40717U 15032C   24157.20704856  .00000934  00000+0  11948-3 0  9992
2 40717  97.7620  38.8026 0008623 343.3541  16.7389 14.83604743479803
CARBONITE 1 (CBNT-1)    
1 40718U 15032D   24157.15473890  .00003327  00000+0  46166-3 0  9997
2 40718  97.6591 357.8840 0015097 198.0921 161.9756 14.78479540479482
DEORBITSAIL             
1 40719U 15032E   24156.86430347  .00008573  00000+0  97015-3 0  9992
2 40719  97.6890  20.6702 0013565 170.0928 190.0558 14.86606236480266
2015-049A               
1 40899U 15049A   24157.11527951  .00031585  00000+0  79056-3 0  9990
2 40899  97.4649 172.8552 0007999  11.6318 348.5111 15.40005388482781
KAITUO 1A               
1 40904U 15049F   24157.20248182  .00047066  00000+0  94044-3 0  9998
2 40904  97.4836 173.5392 0006340  17.0047 343.1413 15.46650375482597
2015-049G               
1 40905U 15049G   24157.21020514  .00012268  00000+0  44517-3 0  9993
2 40905  97.5212 166.1786 0012378  33.9755 326.2275 15.28402492481887
XW-2C                   
1 40906U 15049H   24157.18364314  .00030808  00000+0  72511-3 0  9994
2 40906  97.4778 173.6854 0006985   1.9907 358.1366 15.41883532482625
XW-2D                   
1 40907U 15049J   24157.12990127  .00053393  00000+0  98359-3 0  9998
2 40907  97.4712 176.0175 0004226 352.5625   7.5562 15.48981514482837
LILACSAT-2              
1 40908U 15049K   24157.19677321  .00010071  00000+0  39178-3 0  9994
2 40908  97.5230 165.8205 0013319  40.8911 319.3324 15.26140692481662
XW-2B                   
1 40911U 15049N   24157.21509001  .00047625  00000+0  90029-3 0  9997
2 40911  97.4693 176.2198 0004569 352.2043   7.9135 15.48264356482713
COSMOS 2507             
1 40920U 15050A   24156.90207977  .00000053  00000+0  31276-3 0  9994
2 40920  82.4915 181.7730 0010079 159.4740 200.6747 12.42889249394641
COSMOS 2508             
1 40921U 15050B   24156.92896289  .00000068  00000+0  42195-3 0  9995
2 40921  82.4868 180.5409 0013501 196.1662 163.8988 12.42872428394630
COSMOS 2509             
1 40922U 15050C   24156.87515665  .00000058  00000+0  35072-3 0  9991
2 40922  82.4869 180.6575 0015460 211.3844 148.6315 12.42880503394666
LAPAN-A2                
1 40931U 15052B   24154.23373250  .00001278  00000+0  85541-4 0  9995
2 40931   5.9987  99.5575 0013348 231.3428 128.5504 14.77856046469359
LQSAT                   
1 40958U 15057A   24157.12512151  .00001299  00000+0  20080-3 0  9994
2 40958  97.6676 177.9212 0018283 155.1505 205.0590 14.74746686465832
